STARLINK-2147
1 17736C 21017Q   21326.11266830  .00006054  00000-0  40570-3 0  3267
2 17736  53.0552  43.2371 0001239  78.2376 157.9835 15.06388450    16
